     3.04           N: GNSS NAV DATA    E: GALILEO          RINEX VERSION / TYPE
cnvtToRINEX 3.14.0  convertToRINEX OPR  20250615 162932 UTC PGM / RUN BY / DATE 
----------------------------------------------------------- COMMENT             
GAL    0.1213D+03  0.2266D+00  0.9094D-02                   IONOSPHERIC CORR    
GAUT  0.9313225746D-09-0.888178420D-15      0 2371          TIME SYSTEM CORR    
GAGP  0.4365574569D-09-0.128785871D-13  86400 2371          TIME SYSTEM CORR    
                                                            END OF HEADER       
E36 2025 06 15 13 00 00-0.409352069255D-03-0.537170308235D-11 0.000000000000D+00
     0.780000000000D+02 0.134312500000D+03 0.261796619166D-08 0.197045261239D+01
     0.619143247604D-05 0.191341736354D-03 0.474043190479D-05 0.544060614014D+04
     0.468000000000D+05-0.540167093277D-07 0.153977003456D+01-0.745058059692D-08
     0.999259734813D+00 0.255750000000D+03 0.580179737283D+00-0.543129766392D-08
     0.142863093678D-09 0.516000000000D+03 0.237100000000D+04 0.000000000000D+00
     0.312000000000D+01 0.000000000000D+00 0.442378222942D-08 0.535510480404D-08
     0.474640000000D+05 0.000000000000D+00 0.000000000000D+00 0.000000000000D+00
E36 2025 06 15 13 10 00-0.409355212469D-03-0.535749222763D-11 0.000000000000D+00
     0.790000000000D+02 0.133687500000D+03 0.262868092368D-08 0.204556366884D+01
     0.616535544395D-05 0.191623461433D-03 0.484660267830D-05 0.544060552025D+04
     0.474000000000D+05-0.577419996262D-07 0.153976678396D+01-0.745058059692D-08
     0.999259807959D+00 0.253250000000D+03 0.579453765649D+00-0.543344061033D-08
     0.142863093678D-09 0.513000000000D+03 0.237100000000D+04 0.000000000000D+00
     0.312000000000D+01 0.000000000000D+00 0.442378222942D-08 0.535510480404D-08
     0.491050000000D+05 0.000000000000D+00 0.000000000000D+00 0.000000000000D+00
E 5 2025 06 15 13 20 00 0.486048293533D-02 0.306954461848D-11 0.000000000000D+00
     0.800000000000D+02-0.143531250000D+03 0.272404203871D-08 0.114249191541D+01
    -0.662356615067D-05 0.275222933851D-03 0.916607677937D-05 0.544062185097D+04
     0.480000000000D+05-0.875443220139D-07-0.265683168073D+01 0.651925802231D-07
     0.964949625979D+00 0.146781250000D+03-0.528365241630D+00-0.531950729312D-08
     0.628597612185D-10 0.513000000000D+03 0.237100000000D+04 0.000000000000D+00
     0.312000000000D+01 0.000000000000D+00 0.232830643654D-08 0.302679836750D-08
     0.491050000000D+05 0.000000000000D+00 0.000000000000D+00 0.000000000000D+00
E34 2025 06 15 13 10 00-0.187191588338D-03-0.227373675443D-11 0.000000000000D+00
     0.790000000000D+02 0.126343750000D+03 0.262475218861D-08-0.281789316810D+00
     0.596232712269D-05 0.283464090899D-03 0.422634184361D-05 0.544061003494D+04
     0.474000000000D+05-0.689178705215D-07 0.153788174379D+01 0.428408384323D-07
     0.999076849572D+00 0.269218750000D+03 0.212326381087D+01-0.548094258897D-08
     0.186436337250D-09 0.513000000000D+03 0.237100000000D+04 0.000000000000D+00
     0.312000000000D+01 0.000000000000D+00 0.279396772385D-08 0.395812094212D-08
     0.491050000000D+05 0.000000000000D+00 0.000000000000D+00 0.000000000000D+00
E 9 2025 06 15 13 20 00-0.929497531615D-03-0.149356083057D-10 0.000000000000D+00
     0.800000000000D+02-0.152375000000D+03 0.263225250103D-08 0.154847967242D+01
    -0.703521072865D-05 0.443513854407D-03 0.966340303421D-05 0.544062548447D+04
     0.480000000000D+05-0.149011611938D-07-0.265524013119D+01-0.149011611938D-06
     0.970776896823D+00 0.143406250000D+03-0.138293196535D+00-0.527807699595D-08
    -0.400016662300D-10 0.513000000000D+03 0.237100000000D+04 0.000000000000D+00
     0.312000000000D+01 0.000000000000D+00 0.465661287308D-09 0.698491930962D-09
     0.491050000000D+05 0.000000000000D+00 0.000000000000D+00 0.000000000000D+00
E15 2025 06 15 13 20 00-0.180273782462D-03-0.244426701101D-11 0.000000000000D+00
     0.800000000000D+02 0.140187500000D+03 0.271868467270D-08 0.108061404432D+01
     0.674836337566D-05 0.133593101054D-03 0.396557152271D-05 0.544060559464D+04
     0.480000000000D+05 0.596046447754D-07 0.153968660288D+01 0.670552253723D-07
     0.999211426332D+00 0.274093750000D+03 0.531176469861D-01-0.553630203777D-08
     0.153577825704D-09 0.513000000000D+03 0.237100000000D+04 0.000000000000D+00
     0.312000000000D+01 0.000000000000D+00 0.535510480404D-08 0.605359673500D-08
     0.491050000000D+05 0.000000000000D+00 0.000000000000D+00 0.000000000000D+00
E 5 2025 06 15 13 20 00 0.486048293533D-02 0.306954461848D-11 0.000000000000D+00
     0.800000000000D+02-0.143531250000D+03 0.272404203871D-08 0.114249191541D+01
    -0.662356615067D-05 0.275222933851D-03 0.916607677937D-05 0.544062185097D+04
     0.480000000000D+05-0.875443220139D-07-0.265683168073D+01 0.651925802231D-07
     0.964949625979D+00 0.146781250000D+03-0.528365241630D+00-0.531950729312D-08
     0.628597612185D-10 0.516000000000D+03 0.237100000000D+04 0.000000000000D+00
     0.312000000000D+01 0.000000000000D+00 0.232830643654D-08 0.302679836750D-08
     0.491140000000D+05 0.000000000000D+00 0.000000000000D+00 0.000000000000D+00
E34 2025 06 15 13 10 00-0.187191588338D-03-0.227373675443D-11 0.000000000000D+00
     0.790000000000D+02 0.126343750000D+03 0.262475218861D-08-0.281789316810D+00
     0.596232712269D-05 0.283464090899D-03 0.422634184361D-05 0.544061003494D+04
     0.474000000000D+05-0.689178705215D-07 0.153788174379D+01 0.428408384323D-07
     0.999076849572D+00 0.269218750000D+03 0.212326381087D+01-0.548094258897D-08
     0.186436337250D-09 0.516000000000D+03 0.237100000000D+04 0.000000000000D+00
     0.312000000000D+01 0.000000000000D+00 0.279396772385D-08 0.395812094212D-08
     0.491140000000D+05 0.000000000000D+00 0.000000000000D+00 0.000000000000D+00
E 9 2025 06 15 13 20 00-0.929497531615D-03-0.149356083057D-10 0.000000000000D+00
     0.800000000000D+02-0.152375000000D+03 0.263225250103D-08 0.154847967242D+01
    -0.703521072865D-05 0.443513854407D-03 0.966340303421D-05 0.544062548447D+04
     0.480000000000D+05-0.149011611938D-07-0.265524013119D+01-0.149011611938D-06
     0.970776896823D+00 0.143406250000D+03-0.138293196535D+00-0.527807699595D-08
    -0.400016662300D-10 0.516000000000D+03 0.237100000000D+04 0.000000000000D+00
     0.312000000000D+01 0.000000000000D+00 0.465661287308D-09 0.698491930962D-09
     0.491140000000D+05 0.000000000000D+00 0.000000000000D+00 0.000000000000D+00
E15 2025 06 15 13 20 00-0.180273782462D-03-0.244426701101D-11 0.000000000000D+00
     0.800000000000D+02 0.140187500000D+03 0.271868467270D-08 0.108061404432D+01
     0.674836337566D-05 0.133593101054D-03 0.396557152271D-05 0.544060559464D+04
     0.480000000000D+05 0.596046447754D-07 0.153968660288D+01 0.670552253723D-07
     0.999211426332D+00 0.274093750000D+03 0.531176469861D-01-0.553630203777D-08
     0.153577825704D-09 0.516000000000D+03 0.237100000000D+04 0.000000000000D+00
     0.312000000000D+01 0.000000000000D+00 0.535510480404D-08 0.605359673500D-08
     0.491140000000D+05 0.000000000000D+00 0.000000000000D+00 0.000000000000D+00
E36 2025 06 15 13 10 00-0.409355212469D-03-0.535749222763D-11 0.000000000000D+00
     0.790000000000D+02 0.133687500000D+03 0.262868092368D-08 0.204556366884D+01
     0.616535544395D-05 0.191623461433D-03 0.484660267830D-05 0.544060552025D+04
     0.474000000000D+05-0.577419996262D-07 0.153976678396D+01-0.745058059692D-08
     0.999259807959D+00 0.253250000000D+03 0.579453765649D+00-0.543344061033D-08
     0.142863093678D-09 0.516000000000D+03 0.237100000000D+04 0.000000000000D+00
     0.312000000000D+01 0.000000000000D+00 0.442378222942D-08 0.535510480404D-08
     0.491140000000D+05 0.000000000000D+00 0.000000000000D+00 0.000000000000D+00
E 5 2025 06 15 13 20 00 0.486048148014D-02 0.305533376377D-11 0.000000000000D+00
     0.800000000000D+02-0.143531250000D+03 0.272404203871D-08 0.114249191541D+01
    -0.662356615067D-05 0.275222933851D-03 0.916607677937D-05 0.544062185097D+04
     0.480000000000D+05-0.875443220139D-07-0.265683168073D+01 0.651925802231D-07
     0.964949625979D+00 0.146781250000D+03-0.528365241630D+00-0.531950729312D-08
     0.628597612185D-10 0.258000000000D+03 0.237100000000D+04 0.000000000000D+00
     0.312000000000D+01 0.000000000000D+00 0.232830643654D-08 0.000000000000D+00
     0.491200000000D+05 0.000000000000D+00 0.000000000000D+00 0.000000000000D+00
E34 2025 06 15 13 10 00-0.187193509191D-03-0.227373675443D-11 0.000000000000D+00
     0.790000000000D+02 0.126343750000D+03 0.262475218861D-08-0.281789316810D+00
     0.596232712269D-05 0.283464090899D-03 0.422634184361D-05 0.544061003494D+04
     0.474000000000D+05-0.689178705215D-07 0.153788174379D+01 0.428408384323D-07
     0.999076849572D+00 0.269218750000D+03 0.212326381087D+01-0.548094258897D-08
     0.186436337250D-09 0.258000000000D+03 0.237100000000D+04 0.000000000000D+00
     0.312000000000D+01 0.000000000000D+00 0.279396772385D-08 0.000000000000D+00
     0.491200000000D+05 0.000000000000D+00 0.000000000000D+00 0.000000000000D+00
E15 2025 06 15 13 20 00-0.180275121238D-03-0.243005615630D-11 0.000000000000D+00
     0.800000000000D+02 0.140187500000D+03 0.271868467270D-08 0.108061404432D+01
     0.674836337566D-05 0.133593101054D-03 0.396557152271D-05 0.544060559464D+04
     0.480000000000D+05 0.596046447754D-07 0.153968660288D+01 0.670552253723D-07
     0.999211426332D+00 0.274093750000D+03 0.531176469861D-01-0.553630203777D-08
     0.153577825704D-09 0.258000000000D+03 0.237100000000D+04 0.000000000000D+00
     0.312000000000D+01 0.000000000000D+00 0.535510480404D-08 0.000000000000D+00
     0.491200000000D+05 0.000000000000D+00 0.000000000000D+00 0.000000000000D+00
